{
  "norad_id": 68769,
  "name": "STARLINK-36379",
  "history": [
    {
      "epoch": "2026-04-27T13:34:53.793696Z",
      "apogee_km": 291.31264484448,
      "perigee_km": 287.7189133496031,
      "latitude_deg": -1.107205506373213e-05,
      "longitude_deg": 93.70688209278981,
      "height_km": 290.98842134335933,
      "semi_major_axis_km": 6667.652779097041,
      "eccentricity": 0.00026949,
      "inclination_deg": 97.2805,
      "raan_deg": 152.9849,
      "arg_perigee_deg": 343.4515,
      "mean_anomaly_deg": 16.6672,
      "mean_motion_rev_day": 15.94568933
    }
  ]
}