STARLINK-36379          
1 68769U 26086D   26117.56590039  .00037068  27434-5  10028-3 0  9995
2 68769  97.2805 152.9849 0002694 343.4515  16.6672 15.94568933  1184
